{
  "type": "FeatureCollection",
  "features": [
    {
      "type": "Feature",
      "properties": {
        "norad_id": 37836,
        "name": "EUTELSAT 16A",
        "group": "eutelsat",
        "lat": -0.07281500731451533,
        "lon": -136.90002876563776,
        "alt_km": 35764.61744677879,
        "timestamp": "2025-12-03T08:58:45.670581+00:00",
        "meta_object_name": "EUTELSAT 16A",
        "meta_object_id": "2011-057A",
        "meta_epoch": "2025-12-03T01:50:43.931040",
        "meta_mean_motion": 1.00273643,
        "meta_eccentricity": 0.0006062,
        "meta_inclination": 0.0591,
        "meta_ra_of_asc_node": 346.4882,
        "meta_arg_of_pericenter": 272.1733,
        "meta_mean_anomaly": 217.2026,
        "meta_ephemeris_type": 0,
        "meta_classification_type": "U",
        "meta_norad_cat_id": 37836,
        "meta_element_set_no": 999,
        "meta_rev_at_epoch": 536,
        "meta_bstar": 0,
        "meta_mean_motion_dot": 1.24e-06,
        "meta_mean_motion_ddot": 0,
        "tle_line1": "1 37836U 11057A   25337.07689735  .00000124  00000+0  00000+0 0  9991",
        "tle_line2": "2 37836   0.0591 346.4882 0006062 272.1733 217.2026  1.00273643  5368"
      },
      "geometry": {
        "type": "Point",
        "coordinates": [
          -136.90002876563776,
          -0.07281500731451533
        ]
      }
    },
    {
      "type": "Feature",
      "properties": {
        "norad_id": 38992,
        "name": "EUTELSAT 21B",
        "group": "eutelsat",
        "lat": -0.08496237870615135,
        "lon": -131.2839132021223,
        "alt_km": 35773.989703898966,
        "timestamp": "2025-12-03T08:58:45.670594+00:00",
        "meta_object_name": "EUTELSAT 21B",
        "meta_object_id": "2012-062B",
        "meta_epoch": "2025-12-03T01:52:21.275328",
        "meta_mean_motion": 1.0027366,
        "meta_eccentricity": 0.0003378,
        "meta_inclination": 0.0681,
        "meta_ra_of_asc_node": 345.0491,
        "meta_arg_of_pericenter": 280.0198,
        "meta_mean_anomaly": 216.8005,
        "meta_ephemeris_type": 0,
        "meta_classification_type": "U",
        "meta_norad_cat_id": 38992,
        "meta_element_set_no": 999,
        "meta_rev_at_epoch": 4786,
        "meta_bstar": 0,
        "meta_mean_motion_dot": 1.5e-06,
        "meta_mean_motion_ddot": 0,
        "tle_line1": "1 38992U 12062B   25337.07802402  .00000150  00000+0  00000+0 0  9999",
        "tle_line2": "2 38992   0.0681 345.0491 0003378 280.0198 216.8005  1.00273660 47865"
      },
      "geometry": {
        "type": "Point",
        "coordinates": [
          -131.2839132021223,
          -0.08496237870615135
        ]
      }
    },
    {
      "type": "Feature",
      "properties": {
        "norad_id": 39020,
        "name": "EUTELSAT 70B",
        "group": "eutelsat",
        "lat": -0.07739256754283579,
        "lon": -82.34501001111987,
        "alt_km": 35771.24159631305,
        "timestamp": "2025-12-03T08:58:45.670606+00:00",
        "meta_object_name": "EUTELSAT 70B",
        "meta_object_id": "2012-069A",
        "meta_epoch": "2025-12-03T00:23:35.428992",
        "meta_mean_motion": 1.00271587,
        "meta_eccentricity": 0.0004339,
        "meta_inclination": 0.0628,
        "meta_ra_of_asc_node": 0.7557,
        "meta_arg_of_pericenter": 240.9214,
        "meta_mean_anomaly": 266.8292,
        "meta_ephemeris_type": 0,
        "meta_classification_type": "U",
        "meta_norad_cat_id": 39020,
        "meta_element_set_no": 999,
        "meta_rev_at_epoch": 4754,
        "meta_bstar": 0,
        "meta_mean_motion_dot": -2.4e-07,
        "meta_mean_motion_ddot": 0,
        "tle_line1": "1 39020U 12069A   25337.01638228 -.00000024  00000+0  00000+0 0  9997",
        "tle_line2": "2 39020   0.0628   0.7557 0004339 240.9214 266.8292  1.00271587 47543"
      },
      "geometry": {
        "type": "Point",
        "coordinates": [
          -82.34501001111987,
          -0.07739256754283579
        ]
      }
    },
    {
      "type": "Feature",
      "properties": {
        "norad_id": 39122,
        "name": "EUTELSAT 117 WEST A",
        "group": "eutelsat",
        "lat": 0.032007377709668536,
        "lon": 90.32873174863236,
        "alt_km": 35798.79152743633,
        "timestamp": "2025-12-03T08:58:45.670618+00:00",
        "meta_object_name": "EUTELSAT 117 WEST A",
        "meta_object_id": "2013-012A",
        "meta_epoch": "2025-12-03T04:16:38.815392",
        "meta_mean_motion": 1.00271885,
        "meta_eccentricity": 0.0003147,
        "meta_inclination": 0.0369,
        "meta_ra_of_asc_node": 55.6369,
        "meta_arg_of_pericenter": 197.6268,
        "meta_mean_anomaly": 126.3797,
        "meta_ephemeris_type": 0,
        "meta_classification_type": "U",
        "meta_norad_cat_id": 39122,
        "meta_element_set_no": 999,
        "meta_rev_at_epoch": 4646,
        "meta_bstar": 0,
        "meta_mean_motion_dot": 6e-08,
        "meta_mean_motion_ddot": 0,
        "tle_line1": "1 39122U 13012A   25337.17822703  .00000006  00000+0  00000+0 0  9998",
        "tle_line2": "2 39122   0.0369  55.6369 0003147 197.6268 126.3797  1.00271885 46462"
      },
      "geometry": {
        "type": "Point",
        "coordinates": [
          90.32873174863236,
          0.032007377709668536
        ]
      }
    },
    {
      "type": "Feature",
      "properties": {
        "norad_id": 39163,
        "name": "EUTELSAT 7B",
        "group": "eutelsat",
        "lat": -0.06037398618477937,
        "lon": -145.91796161828873,
        "alt_km": 35788.81176795206,
        "timestamp": "2025-12-03T08:58:45.670631+00:00",
        "meta_object_name": "EUTELSAT 7B",
        "meta_object_id": "2013-022A",
        "meta_epoch": "2025-12-03T01:48:14.168736",
        "meta_mean_motion": 1.00269211,
        "meta_eccentricity": 0.000416,
        "meta_inclination": 0.0674,
        "meta_ra_of_asc_node": 359.1654,
        "meta_arg_of_pericenter": 311.7884,
        "meta_mean_anomaly": 155.2781,
        "meta_ephemeris_type": 0,
        "meta_classification_type": "U",
        "meta_norad_cat_id": 39163,
        "meta_element_set_no": 999,
        "meta_rev_at_epoch": 4599,
        "meta_bstar": 0,
        "meta_mean_motion_dot": 6.7e-07,
        "meta_mean_motion_ddot": 0,
        "tle_line1": "1 39163U 13022A   25337.07516399  .00000067  00000+0  00000+0 0  9991",
        "tle_line2": "2 39163   0.0674 359.1654 0004160 311.7884 155.2781  1.00269211 45995"
      },
      "geometry": {
        "type": "Point",
        "coordinates": [
          -145.91796161828873,
          -0.06037398618477937
        ]
      }
    },
    {
      "type": "Feature",
      "properties": {
        "norad_id": 39612,
        "name": "EXPRESS-AT1",
        "group": "eutelsat",
        "lat": -0.025484094461436527,
        "lon": -96.8633180110251,
        "alt_km": 35787.03406712663,
        "timestamp": "2025-12-03T08:58:45.670643+00:00",
        "meta_object_name": "EXPRESS-AT1",
        "meta_object_id": "2014-010A",
        "meta_epoch": "2025-12-03T02:55:51.885120",
        "meta_mean_motion": 1.00269797,
        "meta_eccentricity": 3.08e-05,
        "meta_inclination": 0.016,
        "meta_ra_of_asc_node": 295.0879,
        "meta_arg_of_pericenter": 219.4551,
        "meta_mean_anomaly": 17.6455,
        "meta_ephemeris_type": 0,
        "meta_classification_type": "U",
        "meta_norad_cat_id": 39612,
        "meta_element_set_no": 999,
        "meta_rev_at_epoch": 4285,
        "meta_bstar": 0,
        "meta_mean_motion_dot": 9.8e-07,
        "meta_mean_motion_ddot": 0,
        "tle_line1": "1 39612U 14010A   25337.12212830  .00000098  00000+0  00000+0 0  9991",
        "tle_line2": "2 39612   0.0160 295.0879 0000308 219.4551  17.6455  1.00269797 42856"
      },
      "geometry": {
        "type": "Point",
        "coordinates": [
          -96.8633180110251,
          -0.025484094461436527
        ]
      }
    },
    {
      "type": "Feature",
      "properties": {
        "norad_id": 39613,
        "name": "EXPRESS-AT2",
        "group": "eutelsat",
        "lat": 0.024821742205838618,
        "lon": -12.992003673603536,
        "alt_km": 35783.43695528102,
        "timestamp": "2025-12-03T08:58:45.670669+00:00",
        "meta_object_name": "EXPRESS-AT2",
        "meta_object_id": "2014-010B",
        "meta_epoch": "2025-12-03T04:08:42.090432",
        "meta_mean_motion": 1.00271892,
        "meta_eccentricity": 0.000125,
        "meta_inclination": 0.0176,
        "meta_ra_of_asc_node": 309.1377,
        "meta_arg_of_pericenter": 338.1326,
        "meta_mean_anomaly": 347.0377,
        "meta_ephemeris_type": 0,
        "meta_classification_type": "U",
        "meta_norad_cat_id": 39613,
        "meta_element_set_no": 999,
        "meta_rev_at_epoch": 4253,
        "meta_bstar": 0,
        "meta_mean_motion_dot": -2.62e-06,
        "meta_mean_motion_ddot": 0,
        "tle_line1": "1 39613U 14010B   25337.17270938 -.00000262  00000+0  00000+0 0  9994",
        "tle_line2": "2 39613   0.0176 309.1377 0001250 338.1326 347.0377  1.00271892 42537"
      },
      "geometry": {
        "type": "Point",
        "coordinates": [
          -12.992003673603536,
          0.024821742205838618
        ]
      }
    }
  ]
}